ONEWEB-0275             
1 48993U 21060AC  25039.85717386  .00000109  00000+0  25037-3 0  9995
2 48993  87.9128 327.0915 0001765  83.9031 276.2301 13.16594491174646
ONEWEB-0276             
1 48994U 21060AD  25040.19439177 -.00000038  00000+0 -13251-3 0  9992
2 48994  87.9131 327.0208 0002031  83.6220 276.5142 13.16591901176001
ONEWEB-0277             
1 48995U 21060AE  25040.05507250  .00000044  00000+0  80585-4 0  9996
2 48995  87.9129 327.0859 0001963  92.5381 267.5975 13.16596159175969
ONEWEB-0278             
1 48996U 21060AF  25040.19755750  .00000014  00000+0  27548-5 0  9990
2 48996  87.9131 327.0172 0001986  73.6200 286.5149 13.16591946176139
ONEWEB-0279             
1 48997U 21060AG  25040.20547363 -.00000007  00000+0 -51038-4 0  9996
2 48997  87.9128 327.0121 0001778  90.9548 269.1787 13.16591886176055
ONEWEB-0280             
1 48998U 21060AH  25040.22052865  .00000072  00000+0  15505-3 0  9995
2 48998  87.9128 327.0141 0002145  81.6601 278.4773 13.16593913175986
ONEWEB-0281             
1 48999U 21060AJ  25040.22605099  .00000040  00000+0  70768-4 0  9997
2 48999  87.9126 327.0122 0001586  79.2714 280.8596 13.16596094176074
ONEWEB-0282             
1 49000U 21060AK  25040.18018443  .00003296  00000+0  85857-2 0  9996
2 49000  87.9130 327.0378 0001963  85.3293 274.8062 13.16579738176050
